[{"OBJECT_NAME":"TIANMU-1 22","OBJECT_ID":"2023-208D","EPOCH":"2026-03-09T22:39:05.738688","MEAN_MOTION":15.29457749,"ECCENTRICITY":0.00031332,"INCLINATION":97.4379,"RA_OF_ASC_NODE":184.9419,"ARG_OF_PERICENTER":351.9312,"MEAN_ANOMALY":8.1877,"EPHEMERIS_TYPE":0,"CLASSIFICATION_TYPE":"U","NORAD_CAT_ID":58663,"ELEMENT_SET_NO":999,"REV_AT_EPOCH":12215,"BSTAR":0.00038239675,"MEAN_MOTION_DOT":0.00010851,"MEAN_MOTION_DDOT":0},{"OBJECT_NAME":"STARLINK-36501","OBJECT_ID":"2026-002Y","EPOCH":"2026-03-09T02:34:42.746016","MEAN_MOTION":15.27611343,"ECCENTRICITY":0.00017045,"INCLINATION":43.0019,"RA_OF_ASC_NODE":328.2274,"ARG_OF_PERICENTER":276.0429,"MEAN_ANOMALY":84.0228,"EPHEMERIS_TYPE":0,"CLASSIFICATION_TYPE":"U","NORAD_CAT_ID":67327,"ELEMENT_SET_NO":999,"REV_AT_EPOCH":1099,"BSTAR":0.0010137739,"MEAN_MOTION_DOT":0.00027767,"MEAN_MOTION_DDOT":0}]
